{
  "type": "FeatureCollection",
  "features": [
    {
      "type": "Feature",
      "properties": {
        "dong": "중곡동",
        "dong_code": "1121510100",
        "sigungu": "광진구"
      },
      "geometry": {
        "type": "Polygon",
        "coordinates": [
          [
            [
              127.068,
              37.56
            ],
            [
              127.095,
              37.56
            ],
            [
              127.095,
              37.572
            ],
            [
              127.068,
              37.572
            ],
            [
              127.068,
              37.56
            ]
          ]
        ]
      }
    },
    {
      "type": "Feature",
      "properties": {
        "dong": "능동",
        "dong_code": "1121510200",
        "sigungu": "광진구"
      },
      "geometry": {
        "type": "Polygon",
        "coordinates": [
          [
            [
              127.076,
              37.548
            ],
            [
              127.095,
              37.548
            ],
            [
              127.095,
              37.56
            ],
            [
              127.076,
              37.56
            ],
            [
              127.076,
              37.548
            ]
          ]
        ]
      }
    },
    {
      "type": "Feature",
      "properties": {
        "dong": "구의동",
        "dong_code": "1121510300",
        "sigungu": "광진구"
      },
      "geometry": {
        "type": "Polygon",
        "coordinates": [
          [
            [
              127.076,
              37.536
            ],
            [
              127.1,
              37.536
            ],
            [
              127.1,
              37.548
            ],
            [
              127.076,
              37.548
            ],
            [
              127.076,
              37.536
            ]
          ]
        ]
      }
    },
    {
      "type": "Feature",
      "properties": {
        "dong": "광장동",
        "dong_code": "1121510400",
        "sigungu": "광진구"
      },
      "geometry": {
        "type": "Polygon",
        "coordinates": [
          [
            [
              127.1,
              37.536
            ],
            [
              127.114,
              37.536
            ],
            [
              127.114,
              37.556
            ],
            [
              127.1,
              37.556
            ],
            [
              127.1,
              37.536
            ]
          ]
        ]
      }
    },
    {
      "type": "Feature",
      "properties": {
        "dong": "자양동",
        "dong_code": "1121510500",
        "sigungu": "광진구"
      },
      "geometry": {
        "type": "Polygon",
        "coordinates": [
          [
            [
              127.058,
              37.524
            ],
            [
              127.1,
              37.524
            ],
            [
              127.1,
              37.536
            ],
            [
              127.058,
              37.536
            ],
            [
              127.058,
              37.524
            ]
          ]
        ]
      }
    },
    {
      "type": "Feature",
      "properties": {
        "dong": "화양동",
        "dong_code": "1121510700",
        "sigungu": "광진구"
      },
      "geometry": {
        "type": "Polygon",
        "coordinates": [
          [
            [
              127.062,
              37.536
            ],
            [
              127.076,
              37.536
            ],
            [
              127.076,
              37.55
            ],
            [
              127.062,
              37.55
            ],
            [
              127.062,
              37.536
            ]
          ]
        ]
      }
    },
    {
      "type": "Feature",
      "properties": {
        "dong": "군자동",
        "dong_code": "1121510900",
        "sigungu": "광진구"
      },
      "geometry": {
        "type": "Polygon",
        "coordinates": [
          [
            [
              127.064,
              37.55
            ],
            [
              127.076,
              37.55
            ],
            [
              127.076,
              37.56
            ],
            [
              127.064,
              37.56
            ],
            [
              127.064,
              37.55
            ]
          ]
        ]
      }
    }
  ]
}
