{
  "type": "FeatureCollection",
  "features": [
    {
      "type": "Feature",
      "properties": {
        "dong": "역삼동",
        "dong_code": "1168010100",
        "sigungu": "강남구"
      },
      "geometry": {
        "type": "Polygon",
        "coordinates": [
          [
            [
              127.026,
              37.492
            ],
            [
              127.046,
              37.492
            ],
            [
              127.046,
              37.504
            ],
            [
              127.026,
              37.504
            ],
            [
              127.026,
              37.492
            ]
          ]
        ]
      }
    },
    {
      "type": "Feature",
      "properties": {
        "dong": "청담동",
        "dong_code": "1168010400",
        "sigungu": "강남구"
      },
      "geometry": {
        "type": "Polygon",
        "coordinates": [
          [
            [
              127.038,
              37.517
            ],
            [
              127.058,
              37.517
            ],
            [
              127.058,
              37.53
            ],
            [
              127.038,
              37.53
            ],
            [
              127.038,
              37.517
            ]
          ]
        ]
      }
    },
    {
      "type": "Feature",
      "properties": {
        "dong": "삼성동",
        "dong_code": "1168010500",
        "sigungu": "강남구"
      },
      "geometry": {
        "type": "Polygon",
        "coordinates": [
          [
            [
              127.038,
              37.504
            ],
            [
              127.066,
              37.504
            ],
            [
              127.066,
              37.517
            ],
            [
              127.038,
              37.517
            ],
            [
              127.038,
              37.504
            ]
          ]
        ]
      }
    },
    {
      "type": "Feature",
      "properties": {
        "dong": "대치동",
        "dong_code": "1168010600",
        "sigungu": "강남구"
      },
      "geometry": {
        "type": "Polygon",
        "coordinates": [
          [
            [
              127.046,
              37.49
            ],
            [
              127.068,
              37.49
            ],
            [
              127.068,
              37.504
            ],
            [
              127.046,
              37.504
            ],
            [
              127.046,
              37.49
            ]
          ]
        ]
      }
    },
    {
      "type": "Feature",
      "properties": {
        "dong": "논현동",
        "dong_code": "1168010800",
        "sigungu": "강남구"
      },
      "geometry": {
        "type": "Polygon",
        "coordinates": [
          [
            [
              127.018,
              37.504
            ],
            [
              127.038,
              37.504
            ],
            [
              127.038,
              37.52
            ],
            [
              127.018,
              37.52
            ],
            [
              127.018,
              37.504
            ]
          ]
        ]
      }
    }
  ]
}
