{"type": "FeatureCollection", "name": "gwangjin_bjd", "crs": {"type": "name", "properties": {"name": "urn:ogc:def:crs:OGC:1.3:CRS84"}}, "features": [{"type": "Feature", "properties": {"dong": "자양동", "emd_cd": "11215105", "count": 751.0, "rent_median": 65.0, "deposit_median": 2000.0, "area_median": 23.97, "cap_seoul_rent_pct": 20.6, "cap_youth_rent_loan_pct": 29.8}, "geometry": {"type": "Polygon", "coordinates": [[[127.082391, 37.541485], [127.082601, 37.541428], [127.082823, 37.54137], [127.082968, 37.541331], [127.082928, 37.541239], [127.08289, 37.54115], [127.082852, 37.541063], [127.082822, 37.540994], [127.082815, 37.540976], [127.082978, 37.540933], [127.083022, 37.540922], [127.083185, 37.540879], [127.083362, 37.540832], [127.083308, 37.540701], [127.083273, 37.540759], [127.083179, 37.540784], [127.083045, 37.54082], [127.082822, 37.540882], [127.08278, 37.540894], [127.082708, 37.54073], [127.082657, 37.540614], [127.082607, 37.540499], [127.082556, 37.540381], [127.082499, 37.540253], [127.082465, 37.540174], [127.082425, 37.540084], [127.082304, 37.540114], [127.082193, 37.54014], [127.081239, 37.540362], [127.080948, 37.540439], [127.080838, 37.540198], [127.081006, 37.540149], [127.081008, 37.540117], [127.081026, 37.539823], [127.080936, 37.539459], [127.080903, 37.539324], [127.080881, 37.539233], [127.080845, 37.53909], [127.080803, 37.538917], [127.080693, 37.53892], [127.080669, 37.538943], [127.080612, 37.538999], [127.080518, 37.539061], [127.080436, 37.539105], [127.080377, 37.539137], [127.080332, 37.539124], [127.080327, 37.539114], [127.080279, 37.539029], [127.080133, 37.53906], [127.080105, 37.53897], [127.080083, 37.5389], [127.08006, 37.538831], [127.080038, 37.538764], [127.079972, 37.538687], [127.079962, 37.538676], [127.079956, 37.538678], [127.079949, 37.538668], [127.0798, 37.538717], [127.079674, 37.538746], [127.079485, 37.538776], [127.079186, 37.538831], [127.079148, 37.538839], [127.079128, 37.53882], [127.079115, 37.538826], [127.079014, 37.538869], [127.078887, 37.538886], [127.07887, 37.538894], [127.078801, 37.53893], [127.07882, 37.538862], [127.078732, 37.53889], [127.078468, 37.538977], [127.078458, 37.53898], [127.078242, 37.539007], [127.078198, 37.539012], [127.078145, 37.539012], [127.078046, 37.539013], [127.077937, 37.539013], [127.07786, 37.539013], [127.077829, 37.539014], [127.077788, 37.539021], [127.077706, 37.539021], [127.077706, 37.539016], [127.077529, 37.53901], [127.077452, 37.539008], [127.077365, 37.539005], [127.077226, 37.538965], [127.077215, 37.538894], [127.077062, 37.538918], [127.077017, 37.538925], [127.077031, 37.538999], [127.077004, 37.539022], [127.076849, 37.539034], [127.076856, 37.539075], [127.076857, 37.53908], [127.076909, 37.539156], [127.076858, 37.539182], [127.076785, 37.539193], [127.07678, 37.539194], [127.076784, 37.539203], [127.076747, 37.539208], [127.076401, 37.539254], [127.076347, 37.539261], [127.076356, 37.539227], [127.076251, 37.539232], [127.076124, 37.539237], [127.075993, 37.539242], [127.075897, 37.539246], [127.075749, 37.539253], [127.075666, 37.539256], [127.075482, 37.539277], [127.07547, 37.53924], [127.075433, 37.539281], [127.075366, 37.539354], [127.075232, 37.53938], [127.075203, 37.539321], [127.075202, 37.539319], [127.075153, 37.539219], [127.075144, 37.539199], [127.075112, 37.538928], [127.07509, 37.538775], [127.074355, 37.538957], [127.074334, 37.538962], [127.074213, 37.53899], [127.074201, 37.538828], [127.072937, 37.539142], [127.072907, 37.53915], [127.071506, 37.539624], [127.070599, 37.539934], [127.069615, 37.54027], [127.068678, 37.540588], [127.067783, 37.540891], [127.066168, 37.541438], [127.06585, 37.541547], [127.063998, 37.542175], [127.064023, 37.542219], [127.064026, 37.542225], [127.064014, 37.542228], [127.063968, 37.542146], [127.063566, 37.54144], [127.063021, 37.540474], [127.062711, 37.539928], [127.062514, 37.539574], [127.062293, 37.539173], [127.062264, 37.53912], [127.061596, 37.537908], [127.061572, 37.537902], [127.060717, 37.53638], [127.060702, 37.536354], [127.059555, 37.534309], [127.05952, 37.534245], [127.059499, 37.534247], [127.059277, 37.533846], [127.059058, 37.533452], [127.05899, 37.533329], [127.05863, 37.532685], [127.058622, 37.53267], [127.058577, 37.53259], [127.058345, 37.53217], [127.057905, 37.531378], [127.057859, 37.531295], [127.057492, 37.530631], [127.057356, 37.530386], [127.056218, 37.528317], [127.057354, 37.527963], [127.060324, 37.527026], [127.063009, 37.525978], [127.065432, 37.525056], [127.067456, 37.524596], [127.068663, 37.523871], [127.07205, 37.523415], [127.074318, 37.522866], [127.076942, 37.522514], [127.079975, 37.522952], [127.081127, 37.523409], [127.082387, 37.523787], [127.085633, 37.524759], [127.085767, 37.524826], [127.088266, 37.526068], [127.088755, 37.52631], [127.090161, 37.527007], [127.091293, 37.52795], [127.092713, 37.530609], [127.092183, 37.530609], [127.092156, 37.530609], [127.091975, 37.53061], [127.091982, 37.530664], [127.091992, 37.530739], [127.091998, 37.53078], [127.091908, 37.530706], [127.091871, 37.53106], [127.091733, 37.532412], [127.091716, 37.532574], [127.091603, 37.532567], [127.091599, 37.532603], [127.091529, 37.533284], [127.091141, 37.533258], [127.091125, 37.533423], [127.09111, 37.533581], [127.091099, 37.533694], [127.090834, 37.533615], [127.09069, 37.533572], [127.090201, 37.533426], [127.090124, 37.533403], [127.090121, 37.533431], [127.090091, 37.533764], [127.09007, 37.534003], [127.089697, 37.535094], [127.089686, 37.535116], [127.089346, 37.535813], [127.089245, 37.536425], [127.089253, 37.536468], [127.089462, 37.537554], [127.089449, 37.53765], [127.089401, 37.53786], [127.08936, 37.53785], [127.089236, 37.53782], [127.088777, 37.53782], [127.088476, 37.537741], [127.086555, 37.537257], [127.085647, 37.537028], [127.084576, 37.536758], [127.083827, 37.536569], [127.083586, 37.536507], [127.083569, 37.536503], [127.08342, 37.537824], [127.083217, 37.539626], [127.083174, 37.54002], [127.083209, 37.540106], [127.083655, 37.541179], [127.083626, 37.541187], [127.083522, 37.541214], [127.082823, 37.541399], [127.082711, 37.541428], [127.082578, 37.541463], [127.082445, 37.541499], [127.082404, 37.541513], [127.082391, 37.541485]]]}}, {"type": "Feature", "properties": {"dong": "구의동", "emd_cd": "11215103", "count": 953.0, "rent_median": 60.0, "deposit_median": 2000.0, "area_median": 26.14, "cap_seoul_rent_pct": 20.5, "cap_youth_rent_loan_pct": 28.3}, "geometry": {"type": "Polygon", "coordinates": [[[127.082391, 37.541485], [127.082404, 37.541513], [127.082445, 37.541499], [127.082578, 37.541463], [127.082711, 37.541428], [127.082823, 37.541399], [127.083522, 37.541214], [127.083626, 37.541187], [127.083655, 37.541179], [127.083209, 37.540106], [127.083174, 37.54002], [127.083217, 37.539626], [127.08342, 37.537824], [127.083569, 37.536503], [127.083586, 37.536507], [127.083827, 37.536569], [127.084576, 37.536758], [127.085647, 37.537028], [127.086555, 37.537257], [127.088476, 37.537741], [127.088777, 37.53782], [127.089236, 37.53782], [127.08936, 37.53785], [127.089401, 37.53786], [127.089449, 37.53765], [127.089462, 37.537554], [127.089253, 37.536468], [127.089245, 37.536425], [127.089346, 37.535813], [127.089686, 37.535116], [127.089697, 37.535094], [127.09007, 37.534003], [127.090091, 37.533764], [127.090121, 37.533431], [127.090124, 37.533403], [127.090201, 37.533426], [127.09069, 37.533572], [127.090834, 37.533615], [127.091099, 37.533694], [127.09111, 37.533581], [127.091125, 37.533423], [127.091141, 37.533258], [127.091529, 37.533284], [127.091599, 37.532603], [127.091603, 37.532567], [127.091716, 37.532574], [127.091733, 37.532412], [127.091871, 37.53106], [127.091908, 37.530706], [127.091998, 37.53078], [127.091992, 37.530739], [127.091982, 37.530664], [127.091975, 37.53061], [127.092156, 37.530609], [127.092183, 37.530609], [127.092713, 37.530609], [127.091293, 37.52795], [127.094662, 37.530607], [127.096955, 37.532425], [127.099203, 37.534208], [127.10203, 37.536445], [127.100472, 37.537627], [127.100272, 37.537772], [127.100218, 37.537811], [127.100171, 37.537847], [127.100105, 37.537897], [127.100097, 37.537904], [127.100041, 37.537947], [127.100005, 37.537974], [127.099306, 37.538506], [127.098355, 37.539251], [127.09704, 37.540241], [127.09662, 37.54057], [127.09645, 37.540684], [127.095962, 37.541058], [127.095687, 37.541212], [127.095481, 37.541419], [127.095217, 37.541689], [127.095067, 37.541841], [127.09464, 37.542271], [127.09414, 37.542778], [127.093659, 37.543222], [127.093358, 37.543506], [127.093143, 37.543709], [127.093317, 37.543818], [127.093274, 37.543865], [127.09343, 37.543993], [127.093484, 37.544033], [127.093859, 37.544224], [127.094218, 37.5443], [127.094238, 37.544294], [127.094848, 37.544543], [127.095155, 37.544715], [127.095379, 37.544823], [127.095613, 37.545023], [127.095906, 37.545378], [127.09668, 37.545664], [127.09673, 37.545969], [127.097323, 37.546503], [127.097572, 37.54673], [127.097685, 37.54683], [127.097915, 37.547005], [127.098113, 37.546749], [127.098239, 37.546829], [127.09832, 37.546881], [127.098452, 37.546965], [127.098481, 37.547318], [127.098485, 37.547362], [127.09842, 37.547502], [127.098243, 37.547498], [127.098143, 37.547634], [127.098046, 37.547765], [127.097664, 37.548247], [127.097635, 37.54857], [127.097702, 37.549153], [127.09771, 37.549325], [127.097991, 37.549466], [127.09807, 37.549706], [127.098096, 37.549785], [127.09817, 37.550001], [127.098178, 37.550024], [127.09818, 37.55003], [127.09819, 37.55006], [127.098147, 37.550097], [127.098082, 37.550152], [127.098026, 37.550199], [127.097921, 37.550288], [127.098136, 37.5505], [127.098249, 37.550606], [127.098288, 37.550643], [127.098691, 37.551018], [127.09895, 37.551116], [127.098946, 37.551359], [127.098759, 37.551815], [127.098693, 37.551978], [127.099033, 37.552242], [127.099489, 37.552541], [127.09952, 37.552557], [127.099662, 37.55263], [127.099684, 37.552641], [127.099831, 37.552717], [127.099834, 37.552798], [127.100006, 37.55297], [127.100231, 37.553065], [127.100406, 37.553138], [127.100689, 37.553152], [127.100892, 37.553261], [127.101116, 37.553308], [127.101171, 37.55332], [127.101445, 37.553378], [127.101661, 37.553343], [127.102143, 37.553081], [127.10234, 37.553259], [127.102707, 37.553522], [127.10299, 37.553569], [127.103036, 37.553625], [127.10321, 37.553837], [127.103441, 37.554137], [127.103704, 37.55462], [127.103761, 37.55465], [127.103893, 37.554744], [127.104109, 37.554904], [127.104133, 37.554913], [127.104263, 37.554962], [127.10432, 37.554972], [127.104584, 37.555018], [127.104783, 37.555827], [127.104941, 37.556413], [127.104662, 37.556808], [127.104404, 37.5573], [127.104276, 37.557567], [127.103906, 37.557797], [127.102853, 37.558711], [127.102706, 37.559023], [127.102297, 37.559091], [127.102169, 37.559186], [127.101528, 37.558937], [127.101467, 37.558881], [127.100485, 37.558536], [127.100246, 37.558453], [127.099335, 37.558356], [127.098342, 37.557865], [127.097433, 37.557224], [127.097182, 37.55696], [127.09715, 37.556948], [127.096986, 37.556885], [127.096235, 37.556684], [127.096164, 37.556662], [127.095522, 37.556471], [127.095494, 37.556463], [127.095219, 37.556342], [127.095129, 37.556306], [127.095037, 37.556273], [127.095008, 37.556263], [127.095, 37.556256], [127.094995, 37.55625], [127.09489, 37.556151], [127.094841, 37.556105], [127.094734, 37.556004], [127.094725, 37.555996], [127.094651, 37.555926], [127.094552, 37.555832], [127.094532, 37.555813], [127.094502, 37.555785], [127.094492, 37.555775], [127.094422, 37.555709], [127.094398, 37.555699], [127.094358, 37.555681], [127.09427, 37.555643], [127.094249, 37.555634], [127.094141, 37.555587], [127.094033, 37.55554], [127.094016, 37.555533], [127.093924, 37.555493], [127.093887, 37.555477], [127.093816, 37.555447], [127.093759, 37.555422], [127.09363, 37.555366], [127.093625, 37.555364], [127.093619, 37.555357], [127.093537, 37.555276], [127.093524, 37.555264], [127.093442, 37.555183], [127.093308, 37.55505], [127.09338, 37.554979], [127.093354, 37.554958], [127.093236, 37.55486], [127.092318, 37.554035], [127.091817, 37.55359], [127.091323, 37.553147], [127.090916, 37.552782], [127.089742, 37.552432], [127.089476, 37.552353], [127.089243, 37.552235], [127.089203, 37.552235], [127.089261, 37.552153], [127.08929, 37.552073], [127.089329, 37.552036], [127.089356, 37.55201], [127.089451, 37.551865], [127.08944, 37.551801], [127.089408, 37.551615], [127.089254, 37.55152], [127.089015, 37.551263], [127.089009, 37.551255], [127.08895, 37.551174], [127.08891, 37.551145], [127.088782, 37.551052], [127.08864, 37.550949], [127.088549, 37.550883], [127.088539, 37.550876], [127.088486, 37.550822], [127.088376, 37.550711], [127.08815, 37.550478], [127.088126, 37.550458], [127.08803, 37.55036], [127.08817, 37.550227], [127.088096, 37.550166], [127.088128, 37.550135], [127.087891, 37.549932], [127.08781, 37.549862], [127.087685, 37.549814], [127.087713, 37.549679], [127.087728, 37.549645], [127.08769, 37.549619], [127.087652, 37.549562], [127.087655, 37.549425], [127.087613, 37.549382], [127.087085, 37.549489], [127.086981, 37.549509], [127.086836, 37.549524], [127.086535, 37.549501], [127.086464, 37.549492], [127.086436, 37.549466], [127.086416, 37.54943], [127.086368, 37.549426], [127.086339, 37.549439], [127.086306, 37.549431], [127.086266, 37.549385], [127.086233, 37.549317], [127.086159, 37.549307], [127.086088, 37.549285], [127.086108, 37.549277], [127.086088, 37.54926], [127.085999, 37.549083], [127.085999, 37.54907], [127.085954, 37.549072], [127.08587, 37.549107], [127.085851, 37.549093], [127.085663, 37.548947], [127.085619, 37.54889], [127.085513, 37.548802], [127.085473, 37.548758], [127.085448, 37.548718], [127.085441, 37.548691], [127.085429, 37.548639], [127.085425, 37.548594], [127.085427, 37.548557], [127.085431, 37.548518], [127.085435, 37.548483], [127.085457, 37.548421], [127.085584, 37.548176], [127.085599, 37.548144], [127.085696, 37.547889], [127.085728, 37.547783], [127.085782, 37.547587], [127.085795, 37.547497], [127.08579, 37.54745], [127.085754, 37.547313], [127.085658, 37.547049], [127.085658, 37.546951], [127.085673, 37.5469], [127.085696, 37.546854], [127.08574, 37.546813], [127.085743, 37.546805], [127.085765, 37.546749], [127.085766, 37.546747], [127.085783, 37.546702], [127.085824, 37.54667], [127.085949, 37.546593], [127.085936, 37.54656], [127.085879, 37.546415], [127.08586, 37.546367], [127.085921, 37.5463], [127.085896, 37.54628], [127.085744, 37.546142], [127.085708, 37.546114], [127.085657, 37.546072], [127.085498, 37.545944], [127.085478, 37.54593], [127.085449, 37.54591], [127.08545, 37.545886], [127.085452, 37.545862], [127.085453, 37.545832], [127.085378, 37.54574], [127.085348, 37.545647], [127.085335, 37.545604], [127.085326, 37.545544], [127.085318, 37.545496], [127.085298, 37.545485], [127.085191, 37.545426], [127.085103, 37.545285], [127.085095, 37.545257], [127.085087, 37.545231], [127.085084, 37.545213], [127.08507, 37.545214], [127.085066, 37.545183], [127.085052, 37.545069], [127.082834, 37.545204], [127.082807, 37.545136], [127.082744, 37.545142], [127.081537, 37.545216], [127.081544, 37.545179], [127.081547, 37.545165], [127.081549, 37.545154], [127.081537, 37.545024], [127.081066, 37.545085], [127.080844, 37.54509], [127.08084, 37.544992], [127.080174, 37.545028], [127.080172, 37.545042], [127.080162, 37.545041], [127.080161, 37.545091], [127.080154, 37.545117], [127.08013, 37.545219], [127.079985, 37.54523], [127.08003, 37.545105], [127.080056, 37.545032], [127.080064, 37.545009], [127.080068, 37.544998], [127.080073, 37.544943], [127.080056, 37.544936], [127.080028, 37.544923], [127.080027, 37.544883], [127.080051, 37.544752], [127.080023, 37.544464], [127.080005, 37.544245], [127.079997, 37.544237], [127.079903, 37.544132], [127.079678, 37.543881], [127.079657, 37.543827], [127.079545, 37.543833], [127.079537, 37.543746], [127.079485, 37.543228], [127.079996, 37.543206], [127.081068, 37.543163], [127.081068, 37.543156], [127.081358, 37.543154], [127.081395, 37.543224], [127.08139, 37.543295], [127.081408, 37.543258], [127.081455, 37.543162], [127.081449, 37.543065], [127.081441, 37.542942], [127.081434, 37.542829], [127.081427, 37.542713], [127.081421, 37.542643], [127.081407, 37.542479], [127.081398, 37.542365], [127.081397, 37.542359], [127.081396, 37.54234], [127.081395, 37.542328], [127.081417, 37.542278], [127.081421, 37.542238], [127.081434, 37.542131], [127.081435, 37.542122], [127.081444, 37.542039], [127.081599, 37.541984], [127.08165, 37.541966], [127.081899, 37.541868], [127.082036, 37.541815], [127.082053, 37.541744], [127.082112, 37.541663], [127.082193, 37.541593], [127.082383, 37.541465], [127.082391, 37.541485]]]}}, {"type": "Feature", "properties": {"dong": "화양동", "emd_cd": "11215107", "count": 1123.0, "rent_median": 69.0, "deposit_median": 1000.0, "area_median": 17.64, "cap_seoul_rent_pct": 25.2, "cap_youth_rent_loan_pct": 37.9}, "geometry": {"type": "Polygon", "coordinates": [[[127.082391, 37.541485], [127.082383, 37.541465], [127.082193, 37.541593], [127.082112, 37.541663], [127.082053, 37.541744], [127.082036, 37.541815], [127.081899, 37.541868], [127.08165, 37.541966], [127.081599, 37.541984], [127.081444, 37.542039], [127.081435, 37.542122], [127.081434, 37.542131], [127.081421, 37.542238], [127.081417, 37.542278], [127.081395, 37.542328], [127.081396, 37.54234], [127.081397, 37.542359], [127.081398, 37.542365], [127.081407, 37.542479], [127.081421, 37.542643], [127.081427, 37.542713], [127.081434, 37.542829], [127.081441, 37.542942], [127.081449, 37.543065], [127.081455, 37.543162], [127.081408, 37.543258], [127.08139, 37.543295], [127.081395, 37.543224], [127.081358, 37.543154], [127.081068, 37.543156], [127.081068, 37.543163], [127.079996, 37.543206], [127.079485, 37.543228], [127.079537, 37.543746], [127.079545, 37.543833], [127.079657, 37.543827], [127.079678, 37.543881], [127.079903, 37.544132], [127.079997, 37.544237], [127.080005, 37.544245], [127.080023, 37.544464], [127.080051, 37.544752], [127.080027, 37.544883], [127.080028, 37.544923], [127.080056, 37.544936], [127.080073, 37.544943], [127.080068, 37.544998], [127.080064, 37.545009], [127.080056, 37.545032], [127.08003, 37.545105], [127.079985, 37.54523], [127.08013, 37.545219], [127.080154, 37.545117], [127.080161, 37.545091], [127.080162, 37.545041], [127.080172, 37.545042], [127.080174, 37.545028], [127.08084, 37.544992], [127.080844, 37.54509], [127.081066, 37.545085], [127.081537, 37.545024], [127.081549, 37.545154], [127.081547, 37.545165], [127.081544, 37.545179], [127.081537, 37.545216], [127.081536, 37.54522], [127.081547, 37.545284], [127.081551, 37.545305], [127.081561, 37.545383], [127.081, 37.545378], [127.080485, 37.545346], [127.080235, 37.54532], [127.079933, 37.545301], [127.079629, 37.545334], [127.079545, 37.545351], [127.079424, 37.545378], [127.079277, 37.545408], [127.078949, 37.545477], [127.07865, 37.545544], [127.078509, 37.54558], [127.078337, 37.545622], [127.078144, 37.545654], [127.077997, 37.545684], [127.077821, 37.545713], [127.07774, 37.545727], [127.077432, 37.545803], [127.077311, 37.545836], [127.077059, 37.545922], [127.076902, 37.545997], [127.07663, 37.54616], [127.076467, 37.546233], [127.076061, 37.546429], [127.075934, 37.546489], [127.075912, 37.546501], [127.075739, 37.546586], [127.075582, 37.546673], [127.075342, 37.546806], [127.075122, 37.546944], [127.075118, 37.546946], [127.074995, 37.547019], [127.074928, 37.547047], [127.074894, 37.547058], [127.074832, 37.546996], [127.074667, 37.547024], [127.074522, 37.54705], [127.074486, 37.547061], [127.074137, 37.547166], [127.074157, 37.547213], [127.074231, 37.54739], [127.073971, 37.547461], [127.073961, 37.547464], [127.073892, 37.547312], [127.073883, 37.547291], [127.073837, 37.54719], [127.073779, 37.547207], [127.073766, 37.547211], [127.073694, 37.547232], [127.073504, 37.547289], [127.073406, 37.547318], [127.073238, 37.547365], [127.073089, 37.547406], [127.07203, 37.547718], [127.071684, 37.547784], [127.071661, 37.547787], [127.071244, 37.547849], [127.071155, 37.547859], [127.071118, 37.547871], [127.070953, 37.547955], [127.070455, 37.547995], [127.070436, 37.548031], [127.068685, 37.54823], [127.068117, 37.548308], [127.067734, 37.548321], [127.067466, 37.54833], [127.067258, 37.547964], [127.066945, 37.547407], [127.066621, 37.546844], [127.065854, 37.545491], [127.065606, 37.545043], [127.065153, 37.544246], [127.064846, 37.543693], [127.064598, 37.543241], [127.064586, 37.543241], [127.064089, 37.54236], [127.064048, 37.542288], [127.064014, 37.542228], [127.064026, 37.542225], [127.064023, 37.542219], [127.063998, 37.542175], [127.06585, 37.541547], [127.066168, 37.541438], [127.067783, 37.540891], [127.068678, 37.540588], [127.069615, 37.54027], [127.070599, 37.539934], [127.071506, 37.539624], [127.072907, 37.53915], [127.072937, 37.539142], [127.074201, 37.538828], [127.074213, 37.53899], [127.074334, 37.538962], [127.074355, 37.538957], [127.07509, 37.538775], [127.075112, 37.538928], [127.075144, 37.539199], [127.075153, 37.539219], [127.075202, 37.539319], [127.075203, 37.539321], [127.075232, 37.53938], [127.075366, 37.539354], [127.075433, 37.539281], [127.07547, 37.53924], [127.075482, 37.539277], [127.075666, 37.539256], [127.075749, 37.539253], [127.075897, 37.539246], [127.075993, 37.539242], [127.076124, 37.539237], [127.076251, 37.539232], [127.076356, 37.539227], [127.076347, 37.539261], [127.076401, 37.539254], [127.076747, 37.539208], [127.076784, 37.539203], [127.07678, 37.539194], [127.076785, 37.539193], [127.076858, 37.539182], [127.076909, 37.539156], [127.076857, 37.53908], [127.076856, 37.539075], [127.076849, 37.539034], [127.077004, 37.539022], [127.077031, 37.538999], [127.077017, 37.538925], [127.077062, 37.538918], [127.077215, 37.538894], [127.077226, 37.538965], [127.077365, 37.539005], [127.077452, 37.539008], [127.077529, 37.53901], [127.077706, 37.539016], [127.077706, 37.539021], [127.077788, 37.539021], [127.077829, 37.539014], [127.07786, 37.539013], [127.077937, 37.539013], [127.078046, 37.539013], [127.078145, 37.539012], [127.078198, 37.539012], [127.078242, 37.539007], [127.078458, 37.53898], [127.078468, 37.538977], [127.078732, 37.53889], [127.07882, 37.538862], [127.078801, 37.53893], [127.07887, 37.538894], [127.078887, 37.538886], [127.079014, 37.538869], [127.079115, 37.538826], [127.079128, 37.53882], [127.079148, 37.538839], [127.079186, 37.538831], [127.079485, 37.538776], [127.079674, 37.538746], [127.0798, 37.538717], [127.079949, 37.538668], [127.079956, 37.538678], [127.079962, 37.538676], [127.079972, 37.538687], [127.080038, 37.538764], [127.08006, 37.538831], [127.080083, 37.5389], [127.080105, 37.53897], [127.080133, 37.53906], [127.080279, 37.539029], [127.080327, 37.539114], [127.080332, 37.539124], [127.080377, 37.539137], [127.080436, 37.539105], [127.080518, 37.539061], [127.080612, 37.538999], [127.080669, 37.538943], [127.080693, 37.53892], [127.080803, 37.538917], [127.080845, 37.53909], [127.080881, 37.539233], [127.080903, 37.539324], [127.080936, 37.539459], [127.081026, 37.539823], [127.081008, 37.540117], [127.081006, 37.540149], [127.080838, 37.540198], [127.080948, 37.540439], [127.081239, 37.540362], [127.082193, 37.54014], [127.082304, 37.540114], [127.082425, 37.540084], [127.082465, 37.540174], [127.082499, 37.540253], [127.082556, 37.540381], [127.082607, 37.540499], [127.082657, 37.540614], [127.082708, 37.54073], [127.08278, 37.540894], [127.082822, 37.540882], [127.083045, 37.54082], [127.083179, 37.540784], [127.083273, 37.540759], [127.083308, 37.540701], [127.083362, 37.540832], [127.083185, 37.540879], [127.083022, 37.540922], [127.082978, 37.540933], [127.082815, 37.540976], [127.082822, 37.540994], [127.082852, 37.541063], [127.08289, 37.54115], [127.082928, 37.541239], [127.082968, 37.541331], [127.082823, 37.54137], [127.082601, 37.541428], [127.082391, 37.541485]]]}}, {"type": "Feature", "properties": {"dong": "능동", "emd_cd": "11215102", "count": 203.0, "rent_median": 52.0, "deposit_median": 7000.0, "area_median": 23.96, "cap_seoul_rent_pct": 20.2, "cap_youth_rent_loan_pct": 25.6}, "geometry": {"type": "Polygon", "coordinates": [[[127.081537, 37.545216], [127.082744, 37.545142], [127.082807, 37.545136], [127.082834, 37.545204], [127.085052, 37.545069], [127.085066, 37.545183], [127.08507, 37.545214], [127.085084, 37.545213], [127.085087, 37.545231], [127.085095, 37.545257], [127.085103, 37.545285], [127.085191, 37.545426], [127.085298, 37.545485], [127.085318, 37.545496], [127.085326, 37.545544], [127.085335, 37.545604], [127.085348, 37.545647], [127.085378, 37.54574], [127.085453, 37.545832], [127.085452, 37.545862], [127.08545, 37.545886], [127.085449, 37.54591], [127.085478, 37.54593], [127.085498, 37.545944], [127.085657, 37.546072], [127.085708, 37.546114], [127.085744, 37.546142], [127.085896, 37.54628], [127.085921, 37.5463], [127.08586, 37.546367], [127.085879, 37.546415], [127.085936, 37.54656], [127.085949, 37.546593], [127.085824, 37.54667], [127.085783, 37.546702], [127.085766, 37.546747], [127.085765, 37.546749], [127.085743, 37.546805], [127.08574, 37.546813], [127.085696, 37.546854], [127.085673, 37.5469], [127.085658, 37.546951], [127.085658, 37.547049], [127.085754, 37.547313], [127.08579, 37.54745], [127.085795, 37.547497], [127.085782, 37.547587], [127.085728, 37.547783], [127.085696, 37.547889], [127.085599, 37.548144], [127.085584, 37.548176], [127.085457, 37.548421], [127.085435, 37.548483], [127.085431, 37.548518], [127.085427, 37.548557], [127.085425, 37.548594], [127.085429, 37.548639], [127.085441, 37.548691], [127.085448, 37.548718], [127.085473, 37.548758], [127.085513, 37.548802], [127.085619, 37.54889], [127.085663, 37.548947], [127.085851, 37.549093], [127.08587, 37.549107], [127.085954, 37.549072], [127.085999, 37.54907], [127.085999, 37.549083], [127.086088, 37.54926], [127.086108, 37.549277], [127.086088, 37.549285], [127.086159, 37.549307], [127.086233, 37.549317], [127.086266, 37.549385], [127.086306, 37.549431], [127.086339, 37.549439], [127.086368, 37.549426], [127.086416, 37.54943], [127.086436, 37.549466], [127.086464, 37.549492], [127.086535, 37.549501], [127.086836, 37.549524], [127.086981, 37.549509], [127.087085, 37.549489], [127.087613, 37.549382], [127.087655, 37.549425], [127.087652, 37.549562], [127.08769, 37.549619], [127.087728, 37.549645], [127.087713, 37.549679], [127.087685, 37.549814], [127.08781, 37.549862], [127.087891, 37.549932], [127.088128, 37.550135], [127.088096, 37.550166], [127.08817, 37.550227], [127.08803, 37.55036], [127.088126, 37.550458], [127.08815, 37.550478], [127.088376, 37.550711], [127.088486, 37.550822], [127.088539, 37.550876], [127.088549, 37.550883], [127.08864, 37.550949], [127.088782, 37.551052], [127.08891, 37.551145], [127.08895, 37.551174], [127.089009, 37.551255], [127.089015, 37.551263], [127.089254, 37.55152], [127.089408, 37.551615], [127.08944, 37.551801], [127.089451, 37.551865], [127.089356, 37.55201], [127.089329, 37.552036], [127.08929, 37.552073], [127.089261, 37.552153], [127.089203, 37.552235], [127.089243, 37.552235], [127.089476, 37.552353], [127.089358, 37.552544], [127.089266, 37.55268], [127.089127, 37.552853], [127.088989, 37.553009], [127.088842, 37.55316], [127.088782, 37.553217], [127.088665, 37.553324], [127.088494, 37.553465], [127.088426, 37.553518], [127.088317, 37.553591], [127.088153, 37.553698], [127.088042, 37.553766], [127.087892, 37.55385], [127.087675, 37.553962], [127.087501, 37.554039], [127.085667, 37.554761], [127.082889, 37.555844], [127.082838, 37.555863], [127.081607, 37.556344], [127.08001, 37.556968], [127.079485, 37.557173], [127.079455, 37.557119], [127.079371, 37.556966], [127.078756, 37.555847], [127.078545, 37.555457], [127.077767, 37.554045], [127.077726, 37.55397], [127.077225, 37.552954], [127.077177, 37.552971], [127.077177, 37.552851], [127.076888, 37.552244], [127.076511, 37.551451], [127.076492, 37.551418], [127.076483, 37.551403], [127.076471, 37.55138], [127.076463, 37.551364], [127.07628, 37.550982], [127.076224, 37.550865], [127.076187, 37.550788], [127.076095, 37.550597], [127.076123, 37.550576], [127.07614, 37.550563], [127.076193, 37.550523], [127.076186, 37.550463], [127.076179, 37.550396], [127.076172, 37.550379], [127.076236, 37.550379], [127.076244, 37.550352], [127.076046, 37.550028], [127.075698, 37.549722], [127.075637, 37.549683], [127.075197, 37.549285], [127.075161, 37.549247], [127.075009, 37.549129], [127.07505, 37.549098], [127.075025, 37.549062], [127.075026, 37.548997], [127.07497, 37.548723], [127.074999, 37.548639], [127.074876, 37.548347], [127.07475, 37.548098], [127.074663, 37.548069], [127.074661, 37.548069], [127.074631, 37.548061], [127.074588, 37.547928], [127.074343, 37.547801], [127.074283, 37.547802], [127.074269, 37.547752], [127.074334, 37.547585], [127.074451, 37.547464], [127.074446, 37.547412], [127.074416, 37.547336], [127.074388, 37.547264], [127.074539, 37.547221], [127.074531, 37.547196], [127.074499, 37.5471], [127.074486, 37.547061], [127.074522, 37.54705], [127.074667, 37.547024], [127.074832, 37.546996], [127.074894, 37.547058], [127.074928, 37.547047], [127.074995, 37.547019], [127.075118, 37.546946], [127.075122, 37.546944], [127.075342, 37.546806], [127.075582, 37.546673], [127.075739, 37.546586], [127.075912, 37.546501], [127.075934, 37.546489], [127.076061, 37.546429], [127.076467, 37.546233], [127.07663, 37.54616], [127.076902, 37.545997], [127.077059, 37.545922], [127.077311, 37.545836], [127.077432, 37.545803], [127.07774, 37.545727], [127.077821, 37.545713], [127.077997, 37.545684], [127.078144, 37.545654], [127.078337, 37.545622], [127.078509, 37.54558], [127.07865, 37.545544], [127.078949, 37.545477], [127.079277, 37.545408], [127.079424, 37.545378], [127.079545, 37.545351], [127.079629, 37.545334], [127.079933, 37.545301], [127.080235, 37.54532], [127.080485, 37.545346], [127.081, 37.545378], [127.081561, 37.545383], [127.081551, 37.545305], [127.081547, 37.545284], [127.081536, 37.54522], [127.081537, 37.545216]]]}}, {"type": "Feature", "properties": {"dong": "광장동", "emd_cd": "11215104", "count": 52.0, "rent_median": 64.0, "deposit_median": 1000.0, "area_median": 28.630000000000003, "cap_seoul_rent_pct": 32.7, "cap_youth_rent_loan_pct": 75.0}, "geometry": {"type": "Polygon", "coordinates": [[[127.10203, 37.536445], [127.102618, 37.536921], [127.103725, 37.537808], [127.108282, 37.541408], [127.110244, 37.54501], [127.111471, 37.546927], [127.11151, 37.548613], [127.11155, 37.550513], [127.112763, 37.552216], [127.113958, 37.553918], [127.11402, 37.553992], [127.114074, 37.554064], [127.114083, 37.554076], [127.114088, 37.554085], [127.114141, 37.554208], [127.11419, 37.554321], [127.114299, 37.554575], [127.114483, 37.555004], [127.114638, 37.555364], [127.114821, 37.555819], [127.115089, 37.556443], [127.115226, 37.55676], [127.114365, 37.556808], [127.113962, 37.556822], [127.113317, 37.556835], [127.11333, 37.556851], [127.113342, 37.556871], [127.113369, 37.556922], [127.113378, 37.556952], [127.113381, 37.55699], [127.113384, 37.557015], [127.113385, 37.557046], [127.113377, 37.557077], [127.113375, 37.557094], [127.113375, 37.557116], [127.113382, 37.557157], [127.11339, 37.557178], [127.11356, 37.557488], [127.113629, 37.55794], [127.113918, 37.558392], [127.11389, 37.558412], [127.11387, 37.558426], [127.113807, 37.558472], [127.113655, 37.558534], [127.113601, 37.558554], [127.112743, 37.558876], [127.112297, 37.559001], [127.111794, 37.558686], [127.111608, 37.558601], [127.111421, 37.558515], [127.111022, 37.558407], [127.110826, 37.558359], [127.110349, 37.558253], [127.109987, 37.558341], [127.109529, 37.558554], [127.109215, 37.558393], [127.109021, 37.55835], [127.108544, 37.558245], [127.108521, 37.558224], [127.108306, 37.55803], [127.10824, 37.557996], [127.108046, 37.557895], [127.107651, 37.55771], [127.107517, 37.557605], [127.107141, 37.557105], [127.107078, 37.557076], [127.106858, 37.556932], [127.106677, 37.556813], [127.106393, 37.55646], [127.10604, 37.556366], [127.1054, 37.556334], [127.104941, 37.556413], [127.104783, 37.555827], [127.104584, 37.555018], [127.10432, 37.554972], [127.104263, 37.554962], [127.104133, 37.554913], [127.104109, 37.554904], [127.103893, 37.554744], [127.103761, 37.55465], [127.103704, 37.55462], [127.103441, 37.554137], [127.10321, 37.553837], [127.103036, 37.553625], [127.10299, 37.553569], [127.102707, 37.553522], [127.10234, 37.553259], [127.102143, 37.553081], [127.101661, 37.553343], [127.101445, 37.553378], [127.101171, 37.55332], [127.101116, 37.553308], [127.100892, 37.553261], [127.100689, 37.553152], [127.100406, 37.553138], [127.100231, 37.553065], [127.100006, 37.55297], [127.099834, 37.552798], [127.099831, 37.552717], [127.099684, 37.552641], [127.099662, 37.55263], [127.09952, 37.552557], [127.099489, 37.552541], [127.099033, 37.552242], [127.098693, 37.551978], [127.098759, 37.551815], [127.098946, 37.551359], [127.09895, 37.551116], [127.098691, 37.551018], [127.098288, 37.550643], [127.098249, 37.550606], [127.098136, 37.5505], [127.097921, 37.550288], [127.098026, 37.550199], [127.098082, 37.550152], [127.098147, 37.550097], [127.09819, 37.55006], [127.09818, 37.55003], [127.098178, 37.550024], [127.09817, 37.550001], [127.098096, 37.549785], [127.09807, 37.549706], [127.097991, 37.549466], [127.09771, 37.549325], [127.097702, 37.549153], [127.097635, 37.54857], [127.097664, 37.548247], [127.098046, 37.547765], [127.098143, 37.547634], [127.098243, 37.547498], [127.09842, 37.547502], [127.098485, 37.547362], [127.098481, 37.547318], [127.098452, 37.546965], [127.09832, 37.546881], [127.098239, 37.546829], [127.098113, 37.546749], [127.097915, 37.547005], [127.097685, 37.54683], [127.097572, 37.54673], [127.097323, 37.546503], [127.09673, 37.545969], [127.09668, 37.545664], [127.095906, 37.545378], [127.095613, 37.545023], [127.095379, 37.544823], [127.095155, 37.544715], [127.094848, 37.544543], [127.094238, 37.544294], [127.094218, 37.5443], [127.093859, 37.544224], [127.093484, 37.544033], [127.09343, 37.543993], [127.093274, 37.543865], [127.093317, 37.543818], [127.093143, 37.543709], [127.093358, 37.543506], [127.093659, 37.543222], [127.09414, 37.542778], [127.09464, 37.542271], [127.095067, 37.541841], [127.095217, 37.541689], [127.095481, 37.541419], [127.095687, 37.541212], [127.095962, 37.541058], [127.09645, 37.540684], [127.09662, 37.54057], [127.09704, 37.540241], [127.098355, 37.539251], [127.099306, 37.538506], [127.100005, 37.537974], [127.100041, 37.537947], [127.100097, 37.537904], [127.100105, 37.537897], [127.100171, 37.537847], [127.100218, 37.537811], [127.100272, 37.537772], [127.100472, 37.537627], [127.10203, 37.536445]]]}}, {"type": "Feature", "properties": {"dong": "군자동", "emd_cd": "11215109", "count": 378.0, "rent_median": 66.0, "deposit_median": 2000.0, "area_median": 18.08, "cap_seoul_rent_pct": 18.3, "cap_youth_rent_loan_pct": 22.5}, "geometry": {"type": "Polygon", "coordinates": [[[127.074486, 37.547061], [127.074499, 37.5471], [127.074531, 37.547196], [127.074539, 37.547221], [127.074388, 37.547264], [127.074416, 37.547336], [127.074446, 37.547412], [127.074451, 37.547464], [127.074334, 37.547585], [127.074269, 37.547752], [127.074283, 37.547802], [127.074343, 37.547801], [127.074588, 37.547928], [127.074631, 37.548061], [127.074661, 37.548069], [127.074663, 37.548069], [127.07475, 37.548098], [127.074876, 37.548347], [127.074999, 37.548639], [127.07497, 37.548723], [127.075026, 37.548997], [127.075025, 37.549062], [127.07505, 37.549098], [127.075009, 37.549129], [127.075161, 37.549247], [127.075197, 37.549285], [127.075637, 37.549683], [127.075698, 37.549722], [127.076046, 37.550028], [127.076244, 37.550352], [127.076236, 37.550379], [127.076172, 37.550379], [127.076179, 37.550396], [127.076186, 37.550463], [127.076193, 37.550523], [127.07614, 37.550563], [127.076123, 37.550576], [127.076095, 37.550597], [127.076187, 37.550788], [127.076224, 37.550865], [127.07628, 37.550982], [127.076463, 37.551364], [127.076471, 37.55138], [127.076483, 37.551403], [127.076492, 37.551418], [127.076511, 37.551451], [127.076888, 37.552244], [127.077177, 37.552851], [127.077177, 37.552971], [127.077225, 37.552954], [127.077726, 37.55397], [127.077767, 37.554045], [127.078545, 37.555457], [127.078756, 37.555847], [127.079371, 37.556966], [127.079455, 37.557119], [127.079485, 37.557173], [127.078272, 37.557649], [127.077182, 37.558076], [127.077045, 37.55813], [127.076931, 37.558174], [127.074354, 37.559174], [127.073892, 37.559358], [127.073736, 37.559414], [127.072764, 37.557698], [127.072739, 37.557652], [127.072086, 37.556509], [127.072122, 37.556509], [127.072069, 37.556416], [127.072034, 37.556353], [127.071751, 37.555851], [127.070313, 37.553362], [127.07022, 37.553181], [127.070201, 37.553147], [127.06993, 37.552666], [127.069921, 37.55265], [127.069906, 37.552625], [127.069902, 37.552618], [127.069812, 37.552457], [127.069728, 37.552308], [127.069651, 37.552184], [127.069541, 37.551991], [127.069511, 37.551938], [127.069437, 37.551807], [127.069418, 37.551773], [127.069284, 37.551537], [127.069006, 37.551046], [127.068974, 37.550983], [127.068737, 37.550565], [127.068708, 37.550514], [127.067639, 37.548646], [127.067538, 37.548462], [127.067466, 37.54833], [127.067734, 37.548321], [127.068117, 37.548308], [127.068685, 37.54823], [127.070436, 37.548031], [127.070455, 37.547995], [127.070953, 37.547955], [127.071118, 37.547871], [127.071155, 37.547859], [127.071244, 37.547849], [127.071661, 37.547787], [127.071684, 37.547784], [127.07203, 37.547718], [127.073089, 37.547406], [127.073238, 37.547365], [127.073406, 37.547318], [127.073504, 37.547289], [127.073694, 37.547232], [127.073766, 37.547211], [127.073779, 37.547207], [127.073837, 37.54719], [127.073883, 37.547291], [127.073892, 37.547312], [127.073961, 37.547464], [127.073971, 37.547461], [127.074231, 37.54739], [127.074157, 37.547213], [127.074137, 37.547166], [127.074486, 37.547061]]]}}, {"type": "Feature", "properties": {"dong": "중곡동", "emd_cd": "11215101", "count": 890.0, "rent_median": 45.0, "deposit_median": 4000.0, "area_median": 26.155, "cap_seoul_rent_pct": 36.3, "cap_youth_rent_loan_pct": 38.3}, "geometry": {"type": "Polygon", "coordinates": [[[127.102169, 37.559186], [127.102223, 37.559207], [127.101969, 37.559433], [127.101968, 37.559433], [127.101353, 37.560489], [127.101191, 37.560997], [127.101167, 37.561073], [127.101251, 37.561605], [127.101715, 37.562697], [127.10169, 37.563261], [127.101885, 37.56377], [127.102314, 37.564313], [127.102324, 37.564907], [127.102723, 37.56693], [127.103036, 37.568004], [127.103262, 37.568849], [127.103438, 37.569639], [127.103506, 37.57011], [127.103941, 37.570616], [127.104086, 37.570922], [127.10417, 37.57115], [127.104295, 37.571451], [127.104132, 37.571565], [127.103768, 37.571964], [127.103173, 37.572353], [127.102311, 37.572221], [127.101702, 37.572469], [127.101304, 37.573009], [127.10123, 37.573147], [127.100968, 37.57345], [127.100851, 37.573765], [127.100696, 37.573594], [127.099439, 37.572738], [127.098543, 37.572649], [127.098302, 37.572357], [127.097399, 37.571945], [127.096323, 37.571298], [127.095838, 37.571341], [127.095793, 37.571005], [127.095604, 37.570609], [127.095192, 37.570707], [127.094789, 37.570751], [127.093753, 37.570571], [127.093372, 37.570496], [127.090493, 37.569698], [127.089252, 37.569984], [127.088396, 37.570182], [127.088282, 37.57054], [127.088249, 37.570638], [127.088186, 37.57082], [127.088177, 37.570846], [127.086292, 37.570833], [127.086171, 37.570832], [127.086007, 37.570865], [127.085734, 37.570919], [127.085216, 37.571026], [127.084258, 37.571204], [127.083513, 37.57134], [127.083332, 37.57137], [127.082855, 37.571414], [127.080982, 37.571599], [127.080895, 37.571613], [127.080654, 37.571652], [127.080652, 37.571632], [127.080148, 37.571688], [127.080026, 37.571697], [127.079879, 37.571708], [127.079684, 37.571723], [127.079654, 37.571725], [127.079573, 37.571731], [127.079553, 37.571733], [127.079518, 37.571736], [127.07948, 37.57174], [127.079331, 37.571752], [127.079003, 37.571781], [127.078873, 37.571792], [127.078586, 37.571817], [127.078201, 37.57187], [127.078048, 37.571418], [127.07804, 37.571395], [127.077918, 37.57103], [127.077781, 37.570625], [127.077603, 37.570105], [127.077035, 37.568403], [127.077025, 37.568373], [127.076907, 37.568016], [127.076883, 37.567943], [127.076879, 37.567929], [127.076806, 37.567841], [127.076353, 37.567296], [127.076178, 37.567086], [127.076146, 37.567048], [127.075725, 37.566541], [127.075256, 37.565975], [127.074823, 37.565456], [127.074643, 37.565238], [127.074134, 37.564651], [127.074092, 37.564603], [127.07408, 37.564568], [127.074026, 37.56441], [127.073992, 37.564309], [127.073909, 37.564081], [127.073788, 37.563743], [127.07373, 37.563583], [127.073611, 37.563258], [127.07357, 37.563145], [127.073531, 37.563039], [127.073518, 37.563007], [127.073254, 37.562279], [127.073076, 37.561788], [127.073068, 37.561767], [127.072723, 37.560823], [127.072703, 37.560769], [127.072648, 37.560616], [127.072522, 37.560269], [127.07243, 37.560061], [127.072385, 37.55996], [127.072484, 37.55992], [127.072977, 37.559722], [127.072987, 37.559718], [127.073637, 37.559454], [127.073736, 37.559414], [127.073892, 37.559358], [127.074354, 37.559174], [127.076931, 37.558174], [127.077045, 37.55813], [127.077182, 37.558076], [127.078272, 37.557649], [127.079485, 37.557173], [127.08001, 37.556968], [127.081607, 37.556344], [127.082838, 37.555863], [127.082889, 37.555844], [127.085667, 37.554761], [127.087501, 37.554039], [127.087675, 37.553962], [127.087892, 37.55385], [127.088042, 37.553766], [127.088153, 37.553698], [127.088317, 37.553591], [127.088426, 37.553518], [127.088494, 37.553465], [127.088665, 37.553324], [127.088782, 37.553217], [127.088842, 37.55316], [127.088989, 37.553009], [127.089127, 37.552853], [127.089266, 37.55268], [127.089358, 37.552544], [127.089476, 37.552353], [127.089742, 37.552432], [127.090916, 37.552782], [127.091323, 37.553147], [127.091817, 37.55359], [127.092318, 37.554035], [127.093236, 37.55486], [127.093354, 37.554958], [127.09338, 37.554979], [127.093308, 37.55505], [127.093442, 37.555183], [127.093524, 37.555264], [127.093537, 37.555276], [127.093619, 37.555357], [127.093625, 37.555364], [127.09363, 37.555366], [127.093759, 37.555422], [127.093816, 37.555447], [127.093887, 37.555477], [127.093924, 37.555493], [127.094016, 37.555533], [127.094033, 37.55554], [127.094141, 37.555587], [127.094249, 37.555634], [127.09427, 37.555643], [127.094358, 37.555681], [127.094398, 37.555699], [127.094422, 37.555709], [127.094492, 37.555775], [127.094502, 37.555785], [127.094532, 37.555813], [127.094552, 37.555832], [127.094651, 37.555926], [127.094725, 37.555996], [127.094734, 37.556004], [127.094841, 37.556105], [127.09489, 37.556151], [127.094995, 37.55625], [127.095, 37.556256], [127.095008, 37.556263], [127.095037, 37.556273], [127.095129, 37.556306], [127.095219, 37.556342], [127.095494, 37.556463], [127.095522, 37.556471], [127.096164, 37.556662], [127.096235, 37.556684], [127.096986, 37.556885], [127.09715, 37.556948], [127.097182, 37.55696], [127.097433, 37.557224], [127.098342, 37.557865], [127.099335, 37.558356], [127.100246, 37.558453], [127.100485, 37.558536], [127.101467, 37.558881], [127.101528, 37.558937], [127.102169, 37.559186]]]}}]}